307P/LINEAR,e,4.4335,158.1457,222.1378,5.793481,0.0706797,0.67451142,158.8394,02/14.0/2021,2000,g 15.0,4.0
# From MPC109148
308P/Lagerkvist-Carsenty,e,4.8504,63.0908,333.5959,6.605191,0.0580599,0.36319085,122.5748,02/14.0/2021,2000,g 13.0,2.0
# From MPC 94284
309P/LINEAR,e,17.0232,10.1405,49.9653,4.371495,0.1078348,0.61761359,237.0767,02/14.0/2021,2000,g 15.0,4.0
# From MPC 98566
310P/Hill,e,13.1279,8.9252,31.8376,4.178151,0.1154059,0.42178783,246.5667,02/14.0/2021,2000,g 13.5,4.0
# From MPEC 2021-BE3
311P/PANSTARRS,e,4.9698,279.2277,144.5855,2.188813,0.3043625,0.11546802,39.4324,02/14.0/2021,2000,g 17.0,4.0
# From MPEC 2021-BE3
312P/NEAT,e,19.7684,144.6698,207.5347,3.466128,0.1527345,0.42780909,21.6880,02/14.0/2021,2000,g 16.0,4.0
# From MPEC 2021-BE3
313P/Gibbs,e,10.9831,105.9731,254.6629,3.162058,0.1752868,0.23494906,53.3974,02/14.0/2021,2000,g 15.0,4.0
# From MPC105243
314P/Montani,e,3.9796,267.6165,214.1634,7.271392,0.0502664,0.41604314,79.9106,02/14.0/2021,2000,g  9.5,4.0
# From MPC115888
315P/LONEOS,e,17.7735,68.9780,65.6808,4.939144,0.0897897,0.52175459,138.0248,02/14.0/2021,2000,g 11.0,4.0
# From MPC 92279
316P/LONEOS-Christensen,e,9.8553,246.6843,193.5113,4.357681,0.1083480,0.15812473,211.0034,02/14.0/2021,2000,g 13.5,4.0
# From MPEC 2020-C98
317P/WISE,e,11.9501,275.5162,334.9040,2.965434,0.1930064,0.57050442,27.1791,02/14.0/2021,2000,g 17.5,4.0
# From MPC102103
318P/McNaught-Hartley,e,17.8759,35.6060,313.1521,7.497600,0.0480088,0.67514693,93.1184,02/14.0/2021,2000,g  8.5,6.0
# From MPC 97499
319P/Catalina-McNaught,e,15.0951,111.3773,203.6418,3.567874,0.1462479,0.66660272,299.9766,02/14.0/2021,2000,g 15.0,4.0
# From MPC 96281
320P/McNaught,e,4.9089,295.9301,0.7756,3.094059,0.1810969,0.68576074,5.0451,02/14.0/2021,2000,g 20.5,4.0
# From MPC105243
321P/SOHO,e,20.0684,165.0286,172.7357,2.423321,0.2612689,0.98109406,0.0000,01/17.2833/2020,2000,g 20.0,4.0
# From MPC102103
322P/SOHO,e,11.4629,351.4904,56.9110,2.508062,0.2481399,0.97979137,0.0000,08/31.4522/2019,2000,g 19.0,4.0
# From MPEC 2016-Y36
323P/SOHO,e,5.3387,324.3750,353.0531,2.582041,0.2375524,0.98484279,0.0000,01/17.7618/2021,2000,g 20.0,4.0
# From MPC108598
324P/La Sagra,e,21.4095,270.6346,57.7256,3.097907,0.1807597,0.15474540,345.3206,02/14.0/2021,2000,g 13.0,4.0
# From MPC114609
325P/Yang-Gao,e,16.6962,257.5733,343.6878,3.523964,0.1489899,0.59359593,299.1929,02/14.0/2021,2000,g 14.0,4.0
# From MPC103849
326P/Hill,e,2.4708,99.8122,278.5860,4.063879,0.1203076,0.31756430,233.6822,02/14.0/2021,2000,g 13.5,4.0
# From MPC 97499
327P/Van Ness,e,36.2485,173.9788,185.0278,3.562502,0.1465789,0.56295186,277.1085,02/14.0/2021,2000,g 16.0,4.0
# From MPC109148
328P/LONEOS-Tucker,e,17.6713,341.6289,30.4815,4.195172,0.1147042,0.55194542,215.4349,02/14.0/2021,2000,g 14.5,4.0
# From MPC101101
329P/LINEAR-Catalina,e,21.6685,87.6795,343.5379,5.192039,0.0833100,0.67700699,158.5514,02/14.0/2021,2000,g 13.5,4.0
# From MPC105243
330P/Catalina,e,15.6941,293.0959,188.9799,6.630481,0.0577280,0.54841086,94.2324,02/14.0/2021,2000,g 12.0,4.0
# From MPEC 2021-BE3
331P/Gibbs,e,9.7390,216.7773,183.8194,3.003863,0.1893145,0.04082522,25.9394,02/14.0/2021,2000,g 12.0,4.0
# From MPEC 2016-K18
332P/Ikeya-Murakami,e,9.3799,3.7889,152.3502,3.088924,0.1815488,0.48945312,326.3343,02/14.0/2021,2000,g 18.0,4.0
# From MPEC 2016-EI8
332P-B/Ikeya-Murakami,e,9.3805,3.8028,152.3711,3.082329,0.1821317,0.48970701,359.9699,03/17.0/2016,2000,g 19.0,4.0
# From MPEC 2016-K18
332P-C/Ikeya-Murakami,e,9.3790,3.7893,152.3414,3.088890,0.1815518,0.48945857,326.3479,02/14.0/2021,2000,g 16.5,4.0
# From MPEC 2016-ED0
332P-D/Ikeya-Murakami,e,9.3761,3.7923,152.4393,3.081138,0.1822373,0.48977814,359.9486,03/17.0/2016,2000,g 19.0,4.0
# From MPEC 2016-ED0
332P-E/Ikeya-Murakami,e,9.3774,3.8228,152.2825,3.079877,0.1823493,0.48922008,359.9889,03/17.0/2016,2000,g 21.0,4.0
# From MPEC 2016-ED0
332P-F/Ikeya-Murakami,e,9.5293,3.4757,152.8203,3.163214,0.1751908,0.49918860,359.8501,03/17.0/2016,2000,g 21.0,4.0
# From MPEC 2016-ED0
332P-G/Ikeya-Murakami,e,9.2523,3.6955,154.4000,3.050519,0.1849880,0.49200362,359.9006,03/19.0/2016,2000,g 19.0,4.0
# From MPC100285
332P-H/Ikeya-Murakami,e,9.3795,3.7891,152.3421,3.089073,0.1815356,0.48949369,326.2859,02/14.0/2021,2000,g 19.0,4.0
# From MPEC 2016-ED0
332P-I/Ikeya-Murakami,e,9.3791,3.8048,152.3297,3.081767,0.1821815,0.48955490,359.9360,03/17.0/2016,2000,g 20.5,2.0
# From MPEC 2016-EI8
332P-J/Ikeya-Murakami,e,9.4296,3.6729,152.7712,3.115165,0.1792596,0.49429435,359.8613,03/17.0/2016,2000,g 20.5,2.0
# From MPEC 2020-L06
333P/LINEAR,e,131.9801,115.6254,26.0167,4.218960,0.1137355,0.73676028,202.5108,02/14.0/2021,2000,g 15.0,4.0
# From MPC115888
334P/NEAT,e,20.4463,90.6959,90.0229,6.838348,0.0551159,0.35219804,74.2628,02/14.0/2021,2000,g 10.5,4.0
# From MPC100285
335P/Gibbs,e,7.2931,330.8466,162.2502,3.578377,0.1456045,0.54564491,280.7713,02/14.0/2021,2000,g 17.0,4.0
# From MPC105244
336P/McNaught,e,17.8339,298.2277,308.7523,5.031681,0.0873242,0.44528476,128.5625,02/14.0/2021,2000,g 13.5,4.0
# From MPC115888
337P/WISE,e,15.3728,106.0708,160.9938,3.287402,0.1653579,0.49683756,276.9826,02/14.0/2021,2000,g 17.0,4.0
# From MPC104796
338P/McNaught,e,25.3764,9.7884,4.3973,3.897557,0.1280900,0.41130462,197.8081,02/14.0/2021,2000,g 12.0,4.0
# From MPC101101
339P/Gibbs,e,5.7344,172.7376,27.5205,3.696241,0.1386959,0.63566328,231.2773,02/14.0/2021,2000,g 17.0,4.0
# From MPC102957
340P/Boattini,e,2.0795,291.7253,35.8232,4.251346,0.1124383,0.28072694,173.9088,02/14.0/2021,2000,g 13.0,4.0
# From MPEC 2021-BE3
341P/Gibbs,e,3.7953,29.9850,312.1365,4.293823,0.1107740,0.41536353,190.7662,02/14.0/2021,2000,g 12.5,4.0
# From MPC101101
342P/SOHO,e,11.6718,27.9964,73.0048,3.043495,0.1856287,0.98284874,0.0000,10/19.2680/2021,2000,g  9.0,4.0
# From MPC109148
343P/NEAT-LONEOS,e,5.5839,257.2177,137.3712,5.460908,0.0772337,0.58405079,114.1396,02/14.0/2021,2000,g 14.0,4.0
# From MPC109148
344P/Read,e,3.4906,273.1810,140.3868,4.866358,0.0918117,0.42176032,143.8115,02/14.0/2021,2000,g 13.0,4.0
# From MPC109148
345P/LINEAR,e,2.7269,154.5026,196.3738,4.039302,0.1214072,0.22088336,203.0691,02/14.0/2021,2000,g 12.0,4.0
# From MPC110086
346P/Catalina,e,22.1860,102.4674,335.9906,4.476078,0.1040777,0.50231479,152.1028,02/14.0/2021,2000,g 14.0,4.0
# From MPC108599
347P/PANSTARRS,e,11.7488,261.0359,98.3173,3.606515,0.1439039,0.38562602,232.4763,02/14.0/2021,2000,g 15.0,4.0
# From MPEC 2020-SI8
348P/PANSTARRS,e,17.7406,312.9421,135.5774,3.151200,0.1761936,0.30669958,295.9862,02/14.0/2021,2000,g 14.0,4.0
# From MPC112394
349P/Lemmon,e,5.4909,331.7444,256.0516,3.572756,0.1459483,0.29914404,185.1040,02/14.0/2021,2000,g 14.0,4.0
# From MPC111775
350P/McNaught,e,7.3567,65.3525,140.3861,4.093145,0.1190196,0.09125275,137.5624,02/14.0/2021,2000,g 14.0,4.0
# From MPC105244
351P/Wiegert-PANSTARRS,e,12.7892,283.4493,352.6529,4.437320,0.1054443,0.29596896,201.8199,02/14.0/2021,2000,g 12.5,4.0
# From MPC110086
352P/Skiff,e,21.0088,28.0771,309.1686,6.636673,0.0576472,0.61820421,76.8195,02/14.0/2021,2000,g 11.5,4.0
# From MPEC 2020-AA5
353P/McNaught,e,28.4250,121.5627,230.3776,4.171347,0.1156884,0.47004238,133.0789,02/14.0/2021,2000,g 14.5,4.0
# From MPC105545
354P/LINEAR,e,5.2556,320.1295,132.9962,2.289764,0.2844579,0.12566108,83.2540,02/14.0/2021,2000,g 15.5,4.0
# From MPEC 2020-AA5
355P/LINEAR-NEAT,e,11.0380,51.4352,336.2494,3.472145,0.1523377,0.50703814,185.8641,02/14.0/2021,2000,g 15.5,2.0
# From MPC109148
356P/WISE,e,9.6364,160.7922,226.0073,4.160142,0.1161560,0.35485320,134.1355,02/14.0/2021,2000,g 14.0,4.0
# From MPC114609
357P/Hill,e,6.3108,44.5744,1.4056,4.461146,0.1046007,0.43465426,103.7762,02/14.0/2021,2000,g 15.5,4.0
# From MPEC 2020-HN5
358P/PANSTARRS,e,11.0575,85.7105,299.7274,3.148009,0.1764616,0.23829502,183.4214,02/14.0/2021,2000,g 18.0,4.0
# From MPC110086
359P/LONEOS,e,10.2664,149.7564,200.1440,4.639570,0.0986251,0.32402663,125.5131,02/14.0/2021,2000,g 13.5,4.0
# From MPC108599
360P/WISE,e,24.1016,2.1908,354.1203,3.702536,0.1383423,0.49878882,176.3484,02/14.0/2021,2000,g 19.5,6.0
# From MPC114609
361P/Spacewatch,e,13.8901,203.2513,219.0747,4.939461,0.0897811,0.43792932,85.9974,02/14.0/2021,2000,g 12.0,4.0
# From MPEC 2017-V13
362P/,e,15.5572,192.5759,53.6986,3.968401,0.1246754,0.27962248,203.8961,02/14.0/2021,2000,g 12.9,2.0
# From MPC114609
363P/Lemmon,e,5.3627,147.0984,341.1479,3.540308,0.1479594,0.53027543,158.5659,02/14.0/2021,2000,g 17.5,4.0
# From MPC114609
364P/PANSTARRS,e,12.1423,46.1985,211.9987,2.879112,0.2017513,0.72231117,194.8221,02/14.0/2021,2000,g 17.0,2.0
# From MPC111775
365P/PANSTARRS,e,9.8308,87.3336,66.2570,3.177126,0.1740414,0.57634683,191.1250,02/14.0/2021,2000,g 17.0,4.0
# From MPC114610
366P/Spacewatch,e,8.8592,70.7568,153.1525,3.495616,0.1508060,0.34836332,141.6273,02/14.0/2021,2000,g 15.0,4.0
# From MPC112395
367P/Catalina,e,8.4629,58.7192,172.9162,3.505450,0.1501718,0.28036651,145.5043,02/14.0/2021,2000,g 17.5,2.0
# From MPC114610
368P/NEAT,e,15.4821,257.9540,118.7826,5.526824,0.0758561,0.62630976,67.0177,02/14.0/2021,2000,g 14.0,4.0
# From MPC114610
369P/Hill,e,10.3125,47.2985,13.1923,4.384992,0.1073373,0.55431014,91.5498,02/14.0/2021,2000,g 15.0,4.0
# From MPC114610
370P/NEAT,e,19.4025,55.1258,356.6885,6.435606,0.0603698,0.61448897,59.1950,02/14.0/2021,2000,g 13.0,4.0
# From MPC114610
371P/LINEAR-Skiff,e,17.3773,67.3097,308.4557,4.181207,0.1152794,0.47654117,99.5057,02/14.0/2021,2000,g 16.0,4.0
# From MPEC 2020-K19
372P/McNaught,e,9.5100,325.8164,27.2443,4.503778,0.1031190,0.15267480,87.2844,02/14.0/2021,2000,g 13.5,4.0
# From MPC114610
373P/Rinner,e,13.7603,231.9484,221.1206,3.804196,0.1328342,0.39216446,89.9524,02/14.0/2021,2000,g 14.5,4.0
# From MPC114610
374P/Larson,e,10.7624,7.9124,51.5086,4.974275,0.0888402,0.46242261,67.9911,02/14.0/2021,2000,g 14.0,4.0
# From MPC114610
375P/Hill,e,17.3612,359.9433,119.4712,5.557725,0.0752244,0.65864071,59.1184,02/14.0/2021,2000,g 16.0,4.0
# From MPEC 2020-W26
